COSMOS 2251 DEB         
1 33924U 93036ED  17346.50530302  .00000168  00000-0  18251-3 0  9996
2 33924  73.9158 269.1910 0412404 118.3501 357.2398 13.47145388434011
